[{"OBJECT_NAME":"STARLINK-4048","OBJECT_ID":"2022-062K","EPOCH":"2026-02-24T11:47:07.320480","MEAN_MOTION":15.08839958,"ECCENTRICITY":0.0001412,"INCLINATION":53.2167,"RA_OF_ASC_NODE":93.3715,"ARG_OF_PERICENTER":85.9613,"MEAN_ANOMALY":274.154,"EPHEMERIS_TYPE":0,"CLASSIFICATION_TYPE":"U","NORAD_CAT_ID":52839,"ELEMENT_SET_NO":999,"REV_AT_EPOCH":20379,"BSTAR":-4.7761e-7,"MEAN_MOTION_DOT":-2.96e-6,"MEAN_MOTION_DDOT":0},{"OBJECT_NAME":"STARLINK-4049","OBJECT_ID":"2022-062L","EPOCH":"2026-02-24T12:08:20.048640","MEAN_MOTION":15.08837996,"ECCENTRICITY":0.0001476,"INCLINATION":53.2163,"RA_OF_ASC_NODE":93.4209,"ARG_OF_PERICENTER":88.9238,"MEAN_ANOMALY":271.1923,"EPHEMERIS_TYPE":0,"CLASSIFICATION_TYPE":"U","NORAD_CAT_ID":52840,"ELEMENT_SET_NO":999,"REV_AT_EPOCH":20379,"BSTAR":-3.2847e-5,"MEAN_MOTION_DOT":-8.11e-6,"MEAN_MOTION_DDOT":0},{"OBJECT_NAME":"STARLINK-4065","OBJECT_ID":"2022-062M","EPOCH":"2026-02-24T11:31:13.583712","MEAN_MOTION":15.08833529,"ECCENTRICITY":0.0001281,"INCLINATION":53.2168,"RA_OF_ASC_NODE":93.4196,"ARG_OF_PERICENTER":88.4697,"MEAN_ANOMALY":271.6442,"EPHEMERIS_TYPE":0,"CLASSIFICATION_TYPE":"U","NORAD_CAT_ID":52841,"ELEMENT_SET_NO":999,"REV_AT_EPOCH":20379,"BSTAR":4.3439e-5,"MEAN_MOTION_DOT":4.03e-6,"MEAN_MOTION_DDOT":0},{"OBJECT_NAME":"STARLINK-4046","OBJECT_ID":"2022-062N","EPOCH":"2026-02-24T10:17:01.224096","MEAN_MOTION":15.08836518,"ECCENTRICITY":0.0001457,"INCLINATION":53.2166,"RA_OF_ASC_NODE":93.5755,"ARG_OF_PERICENTER":89.8132,"MEAN_ANOMALY":270.3027,"EPHEMERIS_TYPE":0,"CLASSIFICATION_TYPE":"U","NORAD_CAT_ID":52842,"ELEMENT_SET_NO":999,"REV_AT_EPOCH":20378,"BSTAR":9.8433e-6,"MEAN_MOTION_DOT":-1.31e-6,"MEAN_MOTION_DDOT":0},{"OBJECT_NAME":"STARLINK-4188","OBJECT_ID":"2022-062P","EPOCH":"2026-02-24T11:20:37.283136","MEAN_MOTION":15.08835116,"ECCENTRICITY":0.000116,"INCLINATION":53.2163,"RA_OF_ASC_NODE":93.4546,"ARG_OF_PERICENTER":63.4344,"MEAN_ANOMALY":296.6767,"EPHEMERIS_TYPE":0,"CLASSIFICATION_TYPE":"U","NORAD_CAT_ID":52843,"ELEMENT_SET_NO":999,"REV_AT_EPOCH":20379,"BSTAR":3.3438e-5,"MEAN_MOTION_DOT":2.44e-6,"MEAN_MOTION_DDOT":0},{"OBJECT_NAME":"STARLINK-4208","OBJECT_ID":"2022-062Q","EPOCH":"2026-02-24T11:41:49.013376","MEAN_MOTION":15.08837293,"ECCENTRICITY":0.0001282,"INCLINATION":53.2171,"RA_OF_ASC_NODE":93.3883,"ARG_OF_PERICENTER":85.2931,"MEAN_ANOMALY":274.8207,"EPHEMERIS_TYPE":0,"CLASSIFICATION_TYPE":"U","NORAD_CAT_ID":52844,"ELEMENT_SET_NO":999,"REV_AT_EPOCH":20379,"BSTAR":3.3427e-5,"MEAN_MOTION_DOT":2.44e-6,"MEAN_MOTION_DDOT":0},{"OBJECT_NAME":"STARLINK-4168","OBJECT_ID":"2022-062R","EPOCH":"2026-02-24T11:25:57.135936","MEAN_MOTION":15.08838441,"ECCENTRICITY":0.0001323,"INCLINATION":53.2166,"RA_OF_ASC_NODE":93.5039,"ARG_OF_PERICENTER":94.7159,"MEAN_ANOMALY":265.3984,"EPHEMERIS_TYPE":0,"CLASSIFICATION_TYPE":"U","NORAD_CAT_ID":52845,"ELEMENT_SET_NO":999,"REV_AT_EPOCH":20379,"BSTAR":2.6786e-5,"MEAN_MOTION_DOT":1.38e-6,"MEAN_MOTION_DDOT":0},{"OBJECT_NAME":"STARLINK-4212","OBJECT_ID":"2022-062S","EPOCH":"2026-02-24T11:27:18.501408","MEAN_MOTION":15.08832024,"ECCENTRICITY":0.0001384,"INCLINATION":53.2176,"RA_OF_ASC_NODE":93.4429,"ARG_OF_PERICENTER":91.1231,"MEAN_ANOMALY":268.992,"EPHEMERIS_TYPE":0,"CLASSIFICATION_TYPE":"U","NORAD_CAT_ID":52846,"ELEMENT_SET_NO":999,"REV_AT_EPOCH":20379,"BSTAR":-2.6889e-5,"MEAN_MOTION_DOT":-7.16e-6,"MEAN_MOTION_DDOT":0},{"OBJECT_NAME":"STARLINK-4206","OBJECT_ID":"2022-062T","EPOCH":"2026-02-24T11:10:01.559712","MEAN_MOTION":15.08833707,"ECCENTRICITY":0.0001007,"INCLINATION":53.217,"RA_OF_ASC_NODE":93.4912,"ARG_OF_PERICENTER":92.215,"MEAN_ANOMALY":267.8958,"EPHEMERIS_TYPE":0,"CLASSIFICATION_TYPE":"U","NORAD_CAT_ID":52847,"ELEMENT_SET_NO":999,"REV_AT_EPOCH":20379,"BSTAR":1.679e-5,"MEAN_MOTION_DOT":-2.1e-7,"MEAN_MOTION_DDOT":0},{"OBJECT_NAME":"STARLINK-4202","OBJECT_ID":"2022-062U","EPOCH":"2026-02-24T11:36:31.183200","MEAN_MOTION":15.08835064,"ECCENTRICITY":0.0001147,"INCLINATION":53.2171,"RA_OF_ASC_NODE":93.4045,"ARG_OF_PERICENTER":89.7618,"MEAN_ANOMALY":270.3505,"EPHEMERIS_TYPE":0,"CLASSIFICATION_TYPE":"U","NORAD_CAT_ID":52848,"ELEMENT_SET_NO":999,"REV_AT_EPOCH":20379,"BSTAR":0.00013433,"MEAN_MOTION_DOT":1.85e-5,"MEAN_MOTION_DDOT":0},{"OBJECT_NAME":"STARLINK-4197","OBJECT_ID":"2022-062V","EPOCH":"2026-02-24T11:00:44.831808","MEAN_MOTION":15.08841584,"ECCENTRICITY":0.0001297,"INCLINATION":53.2181,"RA_OF_ASC_NODE":83.5153,"ARG_OF_PERICENTER":83.6859,"MEAN_ANOMALY":276.4281,"EPHEMERIS_TYPE":0,"CLASSIFICATION_TYPE":"U","NORAD_CAT_ID":52849,"ELEMENT_SET_NO":999,"REV_AT_EPOCH":20392,"BSTAR":2.9484e-5,"MEAN_MOTION_DOT":1.81e-6,"MEAN_MOTION_DDOT":0},{"OBJECT_NAME":"STARLINK-4187","OBJECT_ID":"2022-062W","EPOCH":"2026-02-24T08:53:41.271648","MEAN_MOTION":15.08833181,"ECCENTRICITY":0.0001368,"INCLINATION":53.2168,"RA_OF_ASC_NODE":94.2706,"ARG_OF_PERICENTER":85.1075,"MEAN_ANOMALY":275.0073,"EPHEMERIS_TYPE":0,"CLASSIFICATION_TYPE":"U","NORAD_CAT_ID":52850,"ELEMENT_SET_NO":999,"REV_AT_EPOCH":20377,"BSTAR":5.7809e-6,"MEAN_MOTION_DOT":-1.96e-6,"MEAN_MOTION_DDOT":0},{"OBJECT_NAME":"STARLINK-3809","OBJECT_ID":"2022-062X","EPOCH":"2026-02-24T10:55:27.348960","MEAN_MOTION":15.08833016,"ECCENTRICITY":0.0001479,"INCLINATION":53.2176,"RA_OF_ASC_NODE":83.5301,"ARG_OF_PERICENTER":86.1662,"MEAN_ANOMALY":273.9499,"EPHEMERIS_TYPE":0,"CLASSIFICATION_TYPE":"U","NORAD_CAT_ID":52851,"ELEMENT_SET_NO":999,"REV_AT_EPOCH":20392,"BSTAR":-7.2121e-6,"MEAN_MOTION_DOT":-4.03e-6,"MEAN_MOTION_DDOT":0},{"OBJECT_NAME":"STARLINK-4184","OBJECT_ID":"2022-062Y","EPOCH":"2026-02-24T11:06:02.934144","MEAN_MOTION":15.08840498,"ECCENTRICITY":0.0001316,"INCLINATION":53.2177,"RA_OF_ASC_NODE":83.4988,"ARG_OF_PERICENTER":87.4447,"MEAN_ANOMALY":272.6696,"EPHEMERIS_TYPE":0,"CLASSIFICATION_TYPE":"U","NORAD_CAT_ID":52852,"ELEMENT_SET_NO":999,"REV_AT_EPOCH":20392,"BSTAR":6.2347e-5,"MEAN_MOTION_DOT":7.05e-6,"MEAN_MOTION_DDOT":0},{"OBJECT_NAME":"STARLINK-4189","OBJECT_ID":"2022-062Z","EPOCH":"2026-02-24T09:05:33.218016","MEAN_MOTION":15.08825419,"ECCENTRICITY":0.0002129,"INCLINATION":53.2171,"RA_OF_ASC_NODE":83.8507,"ARG_OF_PERICENTER":98.2236,"MEAN_ANOMALY":261.8997,"EPHEMERIS_TYPE":0,"CLASSIFICATION_TYPE":"U","NORAD_CAT_ID":52853,"ELEMENT_SET_NO":999,"REV_AT_EPOCH":20391,"BSTAR":0.0003262,"MEAN_MOTION_DOT":4.905e-5,"MEAN_MOTION_DDOT":0},{"OBJECT_NAME":"STARLINK-4204","OBJECT_ID":"2022-062AA","EPOCH":"2026-02-24T10:50:09.375360","MEAN_MOTION":15.08835631,"ECCENTRICITY":0.0001368,"INCLINATION":53.2165,"RA_OF_ASC_NODE":83.5478,"ARG_OF_PERICENTER":92.8745,"MEAN_ANOMALY":267.2403,"EPHEMERIS_TYPE":0,"CLASSIFICATION_TYPE":"U","NORAD_CAT_ID":52854,"ELEMENT_SET_NO":999,"REV_AT_EPOCH":20392,"BSTAR":2.0218e-5,"MEAN_MOTION_DOT":3.4e-7,"MEAN_MOTION_DDOT":0},{"OBJECT_NAME":"STARLINK-4209","OBJECT_ID":"2022-062AB","EPOCH":"2026-02-24T07:23:29.287104","MEAN_MOTION":15.08830184,"ECCENTRICITY":0.0001264,"INCLINATION":53.2176,"RA_OF_ASC_NODE":84.1986,"ARG_OF_PERICENTER":87.4255,"MEAN_ANOMALY":272.6882,"EPHEMERIS_TYPE":0,"CLASSIFICATION_TYPE":"U","NORAD_CAT_ID":52855,"ELEMENT_SET_NO":999,"REV_AT_EPOCH":20390,"BSTAR":1.9566e-5,"MEAN_MOTION_DOT":2.3e-7,"MEAN_MOTION_DDOT":0}]
