STARLINK-4048           
1 52839U 22062K   26055.49105695 -.00000296  00000+0 -47761-6 0  9995
2 52839  53.2167  93.3715 0001412  85.9613 274.1540 15.08839958203791
STARLINK-4049           
1 52840U 22062L   26055.50578760 -.00000811  00000+0 -32847-4 0  9996
2 52840  53.2163  93.4209 0001476  88.9238 271.1923 15.08837996203796
STARLINK-4065           
1 52841U 22062M   26055.48001833  .00000403  00000+0  43439-4 0  9990
2 52841  53.2168  93.4196 0001281  88.4697 271.6442 15.08833529203794
STARLINK-4046           
1 52842U 22062N   26055.42848639 -.00000131  00000+0  98433-5 0  9992
2 52842  53.2166  93.5755 0001457  89.8132 270.3027 15.08836518203784
STARLINK-4188           
1 52843U 22062P   26055.47265374  .00000244  00000+0  33438-4 0  9994
2 52843  53.2163  93.4546 0001160  63.4344 296.6767 15.08835116203799
STARLINK-4208           
1 52844U 22062Q   26055.48737284  .00000244  00000+0  33427-4 0  9998
2 52844  53.2171  93.3883 0001282  85.2931 274.8207 15.08837293203796
STARLINK-4168           
1 52845U 22062R   26055.47635574  .00000138  00000+0  26786-4 0  9999
2 52845  53.2166  93.5039 0001323  94.7159 265.3984 15.08838441203792
STARLINK-4212           
1 52846U 22062S   26055.47729747 -.00000716  00000+0 -26889-4 0  9994
2 52846  53.2176  93.4429 0001384  91.1231 268.9920 15.08832024203795
STARLINK-4206           
1 52847U 22062T   26055.46529583 -.00000021  00000+0  16790-4 0  9998
2 52847  53.2170  93.4912 0001007  92.2150 267.8958 15.08833707203799
STARLINK-4202           
1 52848U 22062U   26055.48369425  .00001850  00000+0  13433-3 0  9998
2 52848  53.2171  93.4045 0001147  89.7618 270.3505 15.08835064203798
STARLINK-4197           
1 52849U 22062V   26055.45885222  .00000181  00000+0  29484-4 0  9994
2 52849  53.2181  83.5153 0001297  83.6859 276.4281 15.08841584203923
STARLINK-4187           
1 52850U 22062W   26055.37061657 -.00000196  00000+0  57809-5 0  9995
2 52850  53.2168  94.2706 0001368  85.1075 275.0073 15.08833181203770
STARLINK-3809           
1 52851U 22062X   26055.45517765 -.00000403  00000+0 -72121-5 0  9997
2 52851  53.2176  83.5301 0001479  86.1662 273.9499 15.08833016203921
STARLINK-4184           
1 52852U 22062Y   26055.46253396  .00000705  00000+0  62347-4 0  9997
2 52852  53.2177  83.4988 0001316  87.4447 272.6696 15.08840498203925
STARLINK-4189           
1 52853U 22062Z   26055.37885669  .00004905  00000+0  32620-3 0  9998
2 52853  53.2171  83.8507 0002129  98.2236 261.8997 15.08825419203919
STARLINK-4204           
1 52854U 22062AA  26055.45149740  .00000034  00000+0  20218-4 0  9991
2 52854  53.2165  83.5478 0001368  92.8745 267.2403 15.08835631203926
STARLINK-4209           
1 52855U 22062AB  26055.30797786  .00000023  00000+0  19566-4 0  9997
2 52855  53.2176  84.1986 0001264  87.4255 272.6882 15.08830184203908
